[{"OBJECT_NAME":"STARLINK-30157","OBJECT_ID":"2023-113T","EPOCH":"2026-03-09T22:00:01.999584","MEAN_MOTION":15.24444459,"ECCENTRICITY":0.00013627,"INCLINATION":43.0007,"RA_OF_ASC_NODE":348.8979,"ARG_OF_PERICENTER":302.1923,"MEAN_ANOMALY":3.8526,"EPHEMERIS_TYPE":0,"CLASSIFICATION_TYPE":"U","NORAD_CAT_ID":57512,"ELEMENT_SET_NO":999,"REV_AT_EPOCH":578,"BSTAR":0.060939524,"MEAN_MOTION_DOT":0.01691178,"MEAN_MOTION_DDOT":0},{"OBJECT_NAME":"CONTECSAT-1","OBJECT_ID":"2024-043V","EPOCH":"2026-03-09T22:02:35.535840","MEAN_MOTION":15.34615346,"ECCENTRICITY":0.00100896,"INCLINATION":97.5476,"RA_OF_ASC_NODE":207.3735,"ARG_OF_PERICENTER":223.9905,"MEAN_ANOMALY":136.0535,"EPHEMERIS_TYPE":0,"CLASSIFICATION_TYPE":"U","NORAD_CAT_ID":59117,"ELEMENT_SET_NO":999,"REV_AT_EPOCH":11201,"BSTAR":0.0004369392,"MEAN_MOTION_DOT":0.00014607,"MEAN_MOTION_DDOT":0}]
